start=new Date('2023-06-28T00:00:00.000Z').valueOf();
sats=[{"ARG_OF_PERICENTER":"101.9226","OBJECT_NAME":"STARLINK-2401","MEAN_ELEMENT_THEORY":"SGP4","LAUNCH_DATE":"2021-03-11","TLE_LINE1":"1 47818U 21018AH  23178.78989729  .00023447  00000-0  15869-2 0  9991","TIME_SYSTEM":"UTC","COUNTRY_CODE":"US","OBJECT_TYPE":"PAYLOAD","BSTAR":"0.00158690000000","RCS_SIZE":"LARGE","MEAN_ANOMALY":"258.1878","TLE_LINE2":"2 47818  53.0551   2.4866 0001028 101.9226 258.1878 15.06419412127593","NORAD_CAT_ID":"47818","GP_ID":"234592223","SEMIMAJOR_AXIS":"6925.289","MEAN_MOTION":"15.06419412","ECCENTRICITY":"0.00010280","MEAN_MOTION_DOT":"0.00023447","APOAPSIS":"547.866","PERIOD":"95.591","ELEMENT_SET_NO":"999","MEAN_MOTION_DDOT":"0.0000000000000","EPOCH":"2023-06-27T18:57:27.125856","CENTER_NAME":"EARTH","REV_AT_EPOCH":"12759","EPHEMERIS_TYPE":"0","SITE":"AFETR","OBJECT_ID":"2021-018AH","REF_FRAME":"TEME","FILE":"3944419","RA_OF_ASC_NODE":"2.4866","DECAY_DATE":null,"INCLINATION":"53.0551","PERIAPSIS":"546.442","CLASSIFICATION_TYPE":"U"},{"REF_FRAME":"TEME","FILE":"3944420","PERIAPSIS":"546.299","INCLINATION":"53.0549","CLASSIFICATION_TYPE":"U","RA_OF_ASC_NODE":"357.5903","DECAY_DATE":null,"PERIOD":"95.591","ELEMENT_SET_NO":"999","REV_AT_EPOCH":"12766","EPHEMERIS_TYPE":"0","SITE":"AFETR","OBJECT_ID":"2021-018AJ","MEAN_MOTION_DDOT":"0.0000000000000","EPOCH":"2023-06-27T18:23:37.636512","CENTER_NAME":"EARTH","MEAN_MOTION":"15.06418514","ECCENTRICITY":"0.00012380","TLE_LINE2":"2 47819  53.0549 357.5903 0001238  69.8265 290.2857 15.06418514127669","NORAD_CAT_ID":"47819","GP_ID":"234592239","SEMIMAJOR_AXIS":"6925.292","APOAPSIS":"548.014","MEAN_MOTION_DOT":"0.00024118","LAUNCH_DATE":"2021-03-11","OBJECT_NAME":"STARLINK-2402","ARG_OF_PERICENTER":"69.8265","MEAN_ELEMENT_THEORY":"SGP4","OBJECT_TYPE":"PAYLOAD","BSTAR":"0.00163170000000","RCS_SIZE":"LARGE","MEAN_ANOMALY":"290.2857","TLE_LINE1":"1 47819U 21018AJ  23178.76640783  .00024118  00000-0  16317-2 0  9999","TIME_SYSTEM":"UTC","COUNTRY_CODE":"US"},{"FILE":"3943827","REF_FRAME":"TEME","CLASSIFICATION_TYPE":"U","INCLINATION":"53.0553","PERIAPSIS":"546.378","DECAY_DATE":null,"RA_OF_ASC_NODE":"11.8524","ELEMENT_SET_NO":"999","PERIOD":"95.593","OBJECT_ID":"2021-018AK","SITE":"AFETR","EPHEMERIS_TYPE":"0","REV_AT_EPOCH":"12737","CENTER_NAME":"EARTH","EPOCH":"2023-06-26T19:39:33.947424","MEAN_MOTION_DDOT":"0.0000000000000","ECCENTRICITY":"0.00012970","MEAN_MOTION":"15.06379394","SEMIMAJOR_AXIS":"6925.412","NORAD_CAT_ID":"47820","GP_ID":"234578223","TLE_LINE2":"2 47820  53.0553  11.8524 0001297  69.3904 290.7224 15.06379394127378","APOAPSIS":"548.175","MEAN_MOTION_DOT":"0.00018141","LAUNCH_DATE":"2021-03-11","MEAN_ELEMENT_THEORY":"SGP4","OBJECT_NAME":"STARLINK-2403","ARG_OF_PERICENTER":"69.3904","MEAN_ANOMALY":"290.7224","RCS_SIZE":"LARGE","BSTAR":"0.00123430000000","OBJECT_TYPE":"PAYLOAD","COUNTRY_CODE":"US","TIME_SYSTEM":"UTC","TLE_LINE1":"1 47820U 21018AK  23177.81914291  .00018141  00000-0  12343-2 0  9998"},{"REV_AT_EPOCH":"12752","EPHEMERIS_TYPE":"0","SITE":"AFETR","OBJECT_ID":"2021-018AL","MEAN_MOTION_DDOT":"0.0000000000000","EPOCH":"2023-06-26T20:44:34.528128","CENTER_NAME":"EARTH","PERIOD":"95.594","ELEMENT_SET_NO":"999","PERIAPSIS":"546.522","INCLINATION":"53.0554","CLASSIFICATION_TYPE":"U","RA_OF_ASC_NODE":"1.6600","DECAY_DATE":null,"REF_FRAME":"TEME","FILE":"3943848","OBJECT_TYPE":"PAYLOAD","BSTAR":"0.00146450000000","RCS_SIZE":"LARGE","MEAN_ANOMALY":"256.9317","TLE_LINE1":"1 47821U 21018AL  23177.86428852  .00021584  00000-0  14645-2 0  9999","TIME_SYSTEM":"UTC","COUNTRY_CODE":"US","LAUNCH_DATE":"2021-03-11","OBJECT_NAME":"STARLINK-2406","ARG_OF_PERICENTER":"103.1796","MEAN_ELEMENT_THEORY":"SGP4","APOAPSIS":"548.061","MEAN_MOTION_DOT":"0.00021584","MEAN_MOTION":"15.06374661","ECCENTRICITY":"0.00011110","TLE_LINE2":"2 47821  53.0554   1.6600 0001111 103.1796 256.9317 15.06374661127529","GP_ID":"234578419","NORAD_CAT_ID":"47821","SEMIMAJOR_AXIS":"6925.426"},{"MEAN_MOTION":"15.06407590","ECCENTRICITY":"0.00011570","TLE_LINE2":"2 47822  53.0554   7.7281 0001157  95.8964 264.2157 15.06407590127517","NORAD_CAT_ID":"47822","GP_ID":"234590457","SEMIMAJOR_AXIS":"6925.325","APOAPSIS":"547.992","MEAN_MOTION_DOT":"0.00014651","LAUNCH_DATE":"2021-03-11","OBJECT_NAME":"STARLINK-2407","ARG_OF_PERICENTER":"95.8964","MEAN_ELEMENT_THEORY":"SGP4","OBJECT_TYPE":"PAYLOAD","BSTAR":"0.00100020000000","MEAN_ANOMALY":"264.2157","RCS_SIZE":"LARGE","TLE_LINE1":"1 47822U 21018AM  23178.73599085  .00014651  00000-0  10002-2 0  9994","TIME_SYSTEM":"UTC","COUNTRY_CODE":"US","REF_FRAME":"TEME","FILE":"3944339","PERIAPSIS":"546.389","INCLINATION":"53.0554","CLASSIFICATION_TYPE":"U","RA_OF_ASC_NODE":"7.7281","DECAY_DATE":null,"PERIOD":"95.592","ELEMENT_SET_NO":"999","REV_AT_EPOCH":"12751","EPHEMERIS_TYPE":"0","SITE":"AFETR","OBJECT_ID":"2021-018AM","MEAN_MOTION_DDOT":"0.0000000000000","EPOCH":"2023-06-27T17:39:49.609440","CENTER_NAME":"EARTH"},{"LAUNCH_DATE":"2021-03-11","MEAN_ELEMENT_THEORY":"SGP4","ARG_OF_PERICENTER":"110.5229","OBJECT_NAME":"STARLINK-2408","MEAN_ANOMALY":"249.5903","RCS_SIZE":"LARGE","OBJECT_TYPE":"PAYLOAD","BSTAR":"0.00123120000000","COUNTRY_CODE":"US","TLE_LINE1":"1 47823U 21018AN  23178.81800558  .00018110  00000-0  12312-2 0  9994","TIME_SYSTEM":"UTC","MEAN_MOTION":"15.06410195","ECCENTRICITY":"0.00013300","GP_ID":"234592743","NORAD_CAT_ID":"47823","SEMIMAJOR_AXIS":"6925.317","TLE_LINE2":"2 47823  53.0556 357.3585 0001330 110.5229 249.5903 15.06410195127669","APOAPSIS":"548.103","MEAN_MOTION_DOT":"0.00018110","PERIOD":"95.591","ELEMENT_SET_NO":"999","SITE":"AFETR","OBJECT_ID":"2021-018AN","REV_AT_EPOCH":"12766","EPHEMERIS_TYPE":"0","CENTER_NAME":"EARTH","MEAN_MOTION_DDOT":"0.0000000000000","EPOCH":"2023-06-27T19:37:55.682112","REF_FRAME":"TEME","FILE":"3944421","CLASSIFICATION_TYPE":"U","INCLINATION":"53.0556","PERIAPSIS":"546.261","DECAY_DATE":null,"RA_OF_ASC_NODE":"357.3585"},{"PERIOD":"95.593","ELEMENT_SET_NO":"999","MEAN_MOTION_DDOT":"0.0000000000000","EPOCH":"2023-06-27T05:03:30.699936","CENTER_NAME":"EARTH","REV_AT_EPOCH":"12757","EPHEMERIS_TYPE":"0","SITE":"AFETR","OBJECT_ID":"2021-018AP","REF_FRAME":"TEME","FILE":"3944109","RA_OF_ASC_NODE":"0.0957","DECAY_DATE":null,"PERIAPSIS":"546.480","INCLINATION":"53.0554","CLASSIFICATION_TYPE":"U","OBJECT_NAME":"STARLINK-2409","ARG_OF_PERICENTER":"113.1161","MEAN_ELEMENT_THEORY":"SGP4","LAUNCH_DATE":"2021-03-11","TLE_LINE1":"1 47824U 21018AP  23178.21077199  .00019836  00000-0  13470-2 0  9998","TIME_SYSTEM":"UTC","COUNTRY_CODE":"US","OBJECT_TYPE":"PAYLOAD","BSTAR":"0.00134700000000","RCS_SIZE":"LARGE","MEAN_ANOMALY":"246.9942","TLE_LINE2":"2 47824  53.0554   0.0957 0001085 113.1161 246.9942 15.06394187127570","NORAD_CAT_ID":"47824","GP_ID":"234584930","SEMIMAJOR_AXIS":"6925.366","MEAN_MOTION":"15.06394187","ECCENTRICITY":"0.00010850","MEAN_MOTION_DOT":"0.00019836","APOAPSIS":"547.983"},{"ELEMENT_SET_NO":"999","PERIOD":"95.591","SITE":"AFETR","OBJECT_ID":"2021-018AQ","REV_AT_EPOCH":"12765","EPHEMERIS_TYPE":"0","CENTER_NAME":"EARTH","MEAN_MOTION_DDOT":"0.0000000000000","EPOCH":"2023-06-27T18:14:22.049088","REF_FRAME":"TEME","FILE":"3944461","CLASSIFICATION_TYPE":"U","INCLINATION":"53.0549","PERIAPSIS":"546.417","DECAY_DATE":null,"RA_OF_ASC_NODE":"357.6281","LAUNCH_DATE":"2021-03-11","MEAN_ELEMENT_THEORY":"SGP4","OBJECT_NAME":"STARLINK-2410","ARG_OF_PERICENTER":"93.4826","RCS_SIZE":"LARGE","MEAN_ANOMALY":"266.6287","OBJECT_TYPE":"PAYLOAD","BSTAR":"0.00151110000000","COUNTRY_CODE":"US","TLE_LINE1":"1 47825U 21018AQ  23178.75997742  .00022307  00000-0  15111-2 0  9994","TIME_SYSTEM":"UTC","MEAN_MOTION":"15.06415491","ECCENTRICITY":"0.00010810","GP_ID":"234592259","NORAD_CAT_ID":"47825","SEMIMAJOR_AXIS":"6925.301","TLE_LINE2":"2 47825  53.0549 357.6281 0001081  93.4826 266.6287 15.06415491127652","APOAPSIS":"547.915","MEAN_MOTION_DOT":"0.00022307"},{"MEAN_MOTION":"15.06395500","ECCENTRICITY":"0.00013090","NORAD_CAT_ID":"47826","GP_ID":"234587596","SEMIMAJOR_AXIS":"6925.362","TLE_LINE2":"2 47826  53.0552   0.0265 0001309  92.1185 267.9954 15.06395500127579","APOAPSIS":"548.134","MEAN_MOTION_DOT":"0.00018153","LAUNCH_DATE":"2021-03-11","MEAN_ELEMENT_THEORY":"SGP4","ARG_OF_PERICENTER":"92.1185","OBJECT_NAME":"STARLINK-2411","MEAN_ANOMALY":"267.9954","RCS_SIZE":"LARGE","OBJECT_TYPE":"PAYLOAD","BSTAR":"0.00123460000000","COUNTRY_CODE":"US","TLE_LINE1":"1 47826U 21018AR  23178.22552244  .00018153  00000-0  12346-2 0  9992","TIME_SYSTEM":"UTC","REF_FRAME":"TEME","FILE":"3944230","CLASSIFICATION_TYPE":"U","PERIAPSIS":"546.321","INCLINATION":"53.0552","DECAY_DATE":null,"RA_OF_ASC_NODE":"0.0265","ELEMENT_SET_NO":"999","PERIOD":"95.592","SITE":"AFETR","OBJECT_ID":"2021-018AR","REV_AT_EPOCH":"12757","EPHEMERIS_TYPE":"0","CENTER_NAME":"EARTH","MEAN_MOTION_DDOT":"0.0000000000000","EPOCH":"2023-06-27T05:24:45.138816"},{"MEAN_MOTION_DDOT":"0.0000000000000","EPOCH":"2023-06-26T19:26:20.014368","CENTER_NAME":"EARTH","REV_AT_EPOCH":"12765","EPHEMERIS_TYPE":"0","SITE":"AFETR","OBJECT_ID":"2021-018AS","ELEMENT_SET_NO":"999","PERIOD":"95.594","RA_OF_ASC_NODE":"352.1386","DECAY_DATE":null,"INCLINATION":"53.0545","PERIAPSIS":"546.730","CLASSIFICATION_TYPE":"U","REF_FRAME":"TEME","FILE":"3943829","TLE_LINE1":"1 47827U 21018AS  23177.80995387  .00023986  00000-0  16246-2 0  9998","TIME_SYSTEM":"UTC","COUNTRY_CODE":"US","OBJECT_TYPE":"PAYLOAD","BSTAR":"0.00162460000000","RCS_SIZE":"LARGE","MEAN_ANOMALY":"264.6258","OBJECT_NAME":"STARLINK-2413","ARG_OF_PERICENTER":"95.4821","MEAN_ELEMENT_THEORY":"SGP4","LAUNCH_DATE":"2021-03-11","MEAN_MOTION_DOT":"0.00023986","APOAPSIS":"547.829","TLE_LINE2":"2 47827  53.0545 352.1386 0000793  95.4821 264.6258 15.06378463127655","GP_ID":"234578255","NORAD_CAT_ID":"47827","SEMIMAJOR_AXIS":"6925.415","MEAN_MOTION":"15.06378463","ECCENTRICITY":"0.00007930"}];
